     2.10           Navigation                              RINEX VERSION / TYPE
RinexNavWriter      NIMA                11-07-01 23:41:39   PGM / RUN BY / DATE
                                                            END OF HEADER
22 99  8  2  0  0  0.0  .432009808719D-03 -.106865627458D-10  .000000000000D+01
     .101000000000D+03  .438125000000D+02  .531522140031D-08 -.987579584745D+00
     .232458114624D-05  .121040878585D-01  .555254518986D-05  .515369533157D+04
     .864000000000D+05  .275671482086D-06 -.120637150169D+01 -.260770320892D-07
     .934972499095D+00  .257750000000D+03  .467271077704D+00 -.856785688563D-08
     .143220251413D-09  .100000000000D+01  .102100000000D+04  .000000000000D+01
     .480000000000D+02  .000000000000D+01 -.419095158577D-08  .613000000000D+03
     .863760000000D+05  .400000000000D+01
15 99  8  2  0  0  0.0  .710416119546D-03  .409272615798D-11  .000000000000D+01
     .120000000000D+03  .438750000000D+02  .382730227964D-08  .102080608675D+01
     .222213566303D-05  .752852170262D-02  .102594494820D-04  .515337159920D+04
     .864000000000D+05 -.100582838059D-06  .996486287905D+00 -.651925802231D-07
     .983122857482D+00  .193375000000D+03  .153125259196D+01 -.786389899153D-08
     .164649715464D-09  .100000000000D+01  .102100000000D+04  .000000000000D+01
     .340000000000D+01  .000000000000D+01 -.232830643654D-08  .120000000000D+03
     .863460000000D+05  .400000000000D+01
25 99  8  1 23 59 44.0  .191992148757D-05  .113686837722D-12  .000000000000D+01
     .000000000000D+01 -.171250000000D+02  .491449042254D-08  .305531539799D+01
    -.849366188049D-06  .768119376153D-02  .111330300569D-04  .515380317116D+04
     .863840000000D+05 -.186264514923D-07 -.225848211014D+01 -.139698386192D-06
     .936321432449D+00  .147062500000D+03 -.227786992352D+01 -.805819279893D-08
     .453590322429D-10  .100000000000D+01  .102100000000D+04  .000000000000D+01
     .480000000000D+02  .000000000000D+01 -.745058059692D-08  .000000000000D+01
     .863460000000D+05  .400000000000D+01
14 99  8  2  0  0  0.0  .283392146230D-04  .102318153950D-11  .000000000000D+01
     .112000000000D+03  .315937500000D+02  .452518849226D-08 -.835147265956D+00
     .144913792610D-05  .811929232441D-03  .406615436077D-05  .515359407043D+04
     .864000000000D+05  .372529029846D-07  .202792048474D+01  .931322574616D-08
     .977103858058D+00  .312343750000D+03  .216321829360D+01 -.826427281156D-08
     .268225458381D-09  .100000000000D+01  .102100000000D+04  .000000000000D+01
     .480000000000D+02  .000000000000D+01 -.232830643654D-08  .112000000000D+03
     .863460000000D+05  .400000000000D+01
 1 99  8  1 23 59 44.0  .932686962187D-04  .125055521494D-11  .000000000000D+01
     .204000000000D+03 -.841875000000D+02  .472876840076D-08  .286582477489D+01
    -.436231493950D-05  .474628934171D-02  .682473182678D-05  .515435608482D+04
     .863840000000D+05  .521540641785D-07  .305211218525D+01 -.121071934700D-06
     .958578183257D+00  .246093750000D+03 -.171193901711D+01 -.817605485122D-08
    -.288226291496D-09  .100000000000D+01  .102100000000D+04  .000000000000D+01
     .480000000000D+02  .000000000000D+01 -.325962901115D-08  .204000000000D+03
     .863460000000D+05  .400000000000D+01
30 99  8  2  0  0  0.0 -.270134769380D-04 -.136424205266D-11  .000000000000D+01
     .410000000000D+02  .449375000000D+02  .524271838026D-08 -.566015872696D+00
     .236555933952D-05  .514484941959D-02  .596977770328D-05  .515358156776D+04
     .864000000000D+05 -.596046447754D-07 -.117272169410D+01 -.204890966415D-07
     .945484905527D+00  .254812500000D+03  .152848646842D+01 -.859678666210D-08
     .179650340301D-09  .100000000000D+01  .102100000000D+04  .000000000000D+01
     .480000000000D+02  .000000000000D+01 -.791624188423D-08  .410000000000D+02
     .863460000000D+05  .400000000000D+01
21 99  8  1 23 59 44.0  .261142849922D-04  .113686837722D-11  .000000000000D+01
     .100000000000D+02  .324375000000D+02  .466197990446D-08 -.495495277630D+00
     .189431011677D-05  .153161275666D-01  .446103513241D-05  .515368479919D+04
     .863840000000D+05  .163912773132D-06  .198635626401D+01  .189989805222D-06
     .970826286400D+00  .297375000000D+03 -.265838727467D+01 -.846320966951D-08
     .305012705003D-09  .100000000000D+01  .102100000000D+04  .000000000000D+01
     .480000000000D+02  .000000000000D+01 -.232830643654D-08  .100000000000D+02
     .863460000000D+05  .400000000000D+01
29 99  8  1 23 59 44.0  .520664267242D-03  .329691829393D-11  .000000000000D+01
     .130000000000D+02 -.836875000000D+02  .479841415892D-08 -.214109791602D+01
    -.422634184360D-05  .692078738939D-02  .619888305664D-05  .515357432938D+04
     .863840000000D+05  .122934579849D-06  .300702565569D+01  .186264514923D-08
     .958252356291D+00  .257875000000D+03 -.195939601653D+01 -.819284126472D-08
    -.186079179516D-09  .100000000000D+01  .102100000000D+04  .000000000000D+01
     .480000000000D+02  .000000000000D+01 -.745058059692D-08  .130000000000D+02
     .863460000000D+05  .400000000000D+01
